{
 "type": "FeatureCollection",
 "crs": {
  "type": "name",
  "properties": {
   "name": "urn:ogc:def:crs:OGC:1.3:CRS84"
  }
 },
 "features": [
  {
   "type": "Feature",
   "geometry": {
    "type": "Polygon",
    "coordinates": [
     [
      [
       67.1481647,
       24.8702362
      ],
      [
       67.1490083,
       24.8702298
      ],
      [
       67.150702,
       24.869939
      ],
      [
       67.1545243,
       24.8693784
      ],
      [
       67.1564698,
       24.8687346
      ],
      [
       67.1575456,
       24.8682985
      ],
      [
       67.160109,
       24.8682362
      ],
      [
       67.1612763,
       24.8686723
      ],
      [
       67.1669755,
       24.8681947
      ],
      [
       67.1724686,
       24.8664504
      ],
      [
       67.1748948,
       24.8655159
      ],
      [
       67.1816239,
       24.8639376
      ],
      [
       67.1839356,
       24.8625047
      ],
      [
       67.1862931,
       24.8612795
      ],
      [
       67.191443,
       24.8608849
      ],
      [
       67.1948304,
       24.8610303
      ],
      [
       67.1971429,
       24.8617311
      ],
      [
       67.1987908,
       24.8594467
      ],
      [
       67.2004846,
       24.85656
      ],
      [
       67.2027276,
       24.8545662
      ],
      [
       67.2073968,
       24.8502879
      ],
      [
       67.2100976,
       24.8488756
      ],
      [
       67.2120431,
       24.8475464
      ],
      [
       67.2144692,
       24.845054
      ],
      [
       67.2196132,
       24.8436116
      ],
      [
       67.2183773,
       24.837879
      ],
      [
       67.2168438,
       24.8375466
      ],
      [
       67.2157223,
       24.8332054
      ],
      [
       67.2151729,
       24.8320214
      ],
      [
       67.2153332,
       24.8313359
      ],
      [
       67.2115566,
       24.830235
      ],
      [
       67.2112819,
       24.8285317
      ],
      [
       67.2100231,
       24.8277008
      ],
      [
       67.2082836,
       24.8275969
      ],
      [
       67.2059059,
       24.8275992
      ],
      [
       67.2033882,
       24.8279939
      ],
      [
       67.1988105,
       24.8295726
      ],
      [
       67.1957206,
       24.8288871
      ],
      [
       67.193798,
       24.8238808
      ],
      [
       67.1936149,
       24.818355
      ],
      [
       67.1922416,
       24.817711
      ],
      [
       67.1897926,
       24.8163191
      ],
      [
       67.1876411,
       24.815405
      ],
      [
       67.1866111,
       24.8161113
      ],
      [
       67.1859474,
       24.8159867
      ],
      [
       67.185009,
       24.8151349
      ],
      [
       67.1838417,
       24.8151141
      ],
      [
       67.1810264,
       24.8182719
      ],
      [
       67.1783714,
       24.8199753
      ],
      [
       67.175785,
       24.820744
      ],
      [
       67.1720314,
       24.8201
      ],
      [
       67.1708776,
       24.8242253
      ],
      [
       67.1700994,
       24.8282137
      ],
      [
       67.169573,
       24.829377
      ],
      [
       67.1704428,
       24.8300002
      ],
      [
       67.1702597,
       24.8304364
      ],
      [
       67.1707861,
       24.8315165
      ],
      [
       67.1692755,
       24.8332614
      ],
      [
       67.1647436,
       24.8319735
      ],
      [
       67.1633016,
       24.8377065
      ],
      [
       67.1549399,
       24.8364434
      ],
      [
       67.1496299,
       24.8570261
      ],
      [
       67.1486686,
       24.8615534
      ],
      [
       67.1481647,
       24.8702362
      ]
     ]
    ]
   },
   "properties": {
    "name_en": "Landhi Town",
    "name_osm": "\u0644\u0627\u0646\u0688\u06be\u06cc \u0679\u0627\u0624\u0646",
    "city": "Karachi",
    "district": "Korangi District",
    "country": "Pakistan",
    "osm_relation": 16350631,
    "osm_admin_level": 7,
    "area_km2": 25.3696,
    "area_measured_in": "EPSG:32642",
    "h3_resolution": 9,
    "source": "OpenStreetMap via the Overpass API",
    "source_url": "https://www.openstreetmap.org/relation/16350631",
    "licence": "ODbL 1.0 - (c) OpenStreetMap contributors",
    "accessed": "2026-09-26",
    "raw_response_sha256": "0a9b249905a9e5ff039f4239e548b90ac247bf9e9d749cad4697ff8af96181e8",
    "raw_response_sha256_note": "fingerprints this particular download, not the geometry: Overpass embeds a timestamp, so an identical query returns a different hash. Reproducibility is checked by re-measuring the area, not by this hash.",
    "generated_by": "uv run python -m pipeline.boundary (feature P1-01)",
    "decision": "D2 (see DECISIONS.md)"
   }
  }
 ]
}
