{"type":"FeatureCollection","metadata":{"source":"OpenStreetMap via Overpass, highway classes motorway, trunk, primary, secondary, tertiary","simplified_m":15.0,"buffer_km":1.0,"licence":"ODbL 1.0 - (c) OpenStreetMap contributors","purpose":"offline orientation only, not navigation"},"features":[{"type":"Feature","geometry":{"type":"LineString","coordinates":[[67.18094,24.85053],[67.16869,24.84812]]},"properties":{"class":"primary","name":"Main Korangi Road"}},{"type":"Feature","geometry":{"type":"LineString","coordinates":[[67.14722,24.84404],[67.15909,24.84644],[67.15974,24.84673]]},"properties":{"class":"primary","name":"Main Korangi Road"}},{"type":"Feature","geometry":{"type":"LineString","coordinates":[[67.14245,24.84278],[67.14218,24.84256],[67.14182,24.84259],[67.14166,24.84313],[67.14225,24.84328],[67.14245,24.84278]]},"properties":{"class":"primary","name":"Bilal Chowrangi"}},{"type":"Feature","geometry":{"type":"LineString","coordinates":[[67.14536,24.82833],[67.14194,24.84255]]},"properties":{"class":"secondary","name":"Korangi No.2.5 Road"}},{"type":"Feature","geometry":{"type":"LineString","coordinates":[[67.14174,24.84322],[67.14126,24.84569]]},"properties":{"class":"tertiary","name":null}},{"type":"Feature","geometry":{"type":"LineString","coordinates":[[67.16052,24.84648],[67.16006,24.84613],[67.15977,24.84626],[67.15968,24.84662],[67.16019,24.84689],[67.16052,24.84648]]},"properties":{"class":"primary","name":"Indus Chowrangi"}},{"type":"Feature","geometry":{"type":"LineString","coordinates":[[67.21108,24.8543],[67.20856,24.85149]]},"properties":{"class":"primary","name":"Landhi Flyover"}},{"type":"Feature","geometry":{"type":"LineString","coordinates":[[67.22576,24.84206],[67.21465,24.84502],[67.21152,24.84793],[67.20935,24.84926]]},"properties":{"class":"primary","name":"Main Korangi Road"}},{"type":"Feature","geometry":{"type":"LineString","coordinates":[[67.20318,24.86716],[67.20556,24.86344]]},"properties":{"class":"trunk","name":"National Highway"}},{"type":"Feature","geometry":{"type":"LineString","coordinates":[[67.20313,24.8671],[67.20211,24.86828],[67.20037,24.86941],[67.19064,24.87748]]},"properties":{"class":"trunk","name":"National Highway"}},{"type":"Feature","geometry":{"type":"LineString","coordinates":[[67.18913,24.87854],[67.1937,24.87913],[67.19636,24.87918],[67.20881,24.87841]]},"properties":{"class":"primary","name":"Bakra Peri Road"}},{"type":"Feature","geometry":{"type":"LineString","coordinates":[[67.20549,24.86341],[67.20313,24.8671]]},"properties":{"class":"trunk","name":"National Highway"}},{"type":"Feature","geometry":{"type":"LineString","coordinates":[[67.12746,24.8158],[67.14717,24.81981]]},"properties":{"class":"secondary","name":null}},{"type":"Feature","geometry":{"type":"LineString","coordinates":[[67.11852,24.81921],[67.15628,24.8267],[67.15862,24.82769],[67.16278,24.82856],[67.16773,24.82944],[67.16946,24.82931],[67.17254,24.8313],[67.17994,24.83691],[67.18174,24.83805]]},"properties":{"class":"primary","name":"Landhi Road"}},{"type":"Feature","geometry":{"type":"LineString","coordinates":[[67.16324,24.83304],[67.16211,24.83775]]},"properties":{"class":"secondary","name":"Korangi Shahfaisal Road"}},{"type":"Feature","geometry":{"type":"LineString","coordinates":[[67.16033,24.84619],[67.16103,24.84291]]},"properties":{"class":"secondary","name":"Korangi Shahfaisal Road"}},{"type":"Feature","geometry":{"type":"LineString","coordinates":[[67.15122,24.80384],[67.14749,24.81927]]},"properties":{"class":"tertiary","name":"Korangi No.2.5 Road"}},{"type":"Feature","geometry":{"type":"LineString","coordinates":[[67.14305,24.83915],[67.14638,24.82509]]},"properties":{"class":"secondary","name":"Korangi No.2.5 Road"}},{"type":"Feature","geometry":{"type":"LineString","coordinates":[[67.13808,24.81141],[67.1391,24.81147],[67.14041,24.8119],[67.13963,24.81533]]},"properties":{"class":"tertiary","name":null}},{"type":"Feature","geometry":{"type":"LineString","coordinates":[[67.20595,24.84672],[67.20201,24.84447],[67.19623,24.8407],[67.187,24.84075]]},"properties":{"class":"primary","name":"Landhi Road"}},{"type":"Feature","geometry":{"type":"LineString","coordinates":[[67.21573,24.83306],[67.21183,24.83226]]},"properties":{"class":"tertiary","name":null}},{"type":"Feature","geometry":{"type":"LineString","coordinates":[[67.20704,24.83135],[67.20664,24.83096]]},"properties":{"class":"tertiary","name":null}},{"type":"Feature","geometry":{"type":"LineString","coordinates":[[67.1975,24.8125],[67.19643,24.80971],[67.19565,24.80836],[67.195,24.80658],[67.19467,24.80468],[67.19408,24.80435],[67.19319,24.80421],[67.19211,24.80515],[67.18645,24.80748],[67.17882,24.80633],[67.1756,24.80713],[67.17421,24.80714],[67.17211,24.80674],[67.16371,24.80384],[67.15912,24.80295],[67.15394,24.80103],[67.15319,24.79965],[67.15091,24.79684],[67.14781,24.79389],[67.14495,24.79212],[67.14459,24.79164],[67.14192,24.79037],[67.14038,24.78889]]},"properties":{"class":"secondary","name":"Ibrahim Hyderi Road"}},{"type":"Feature","geometry":{"type":"LineString","coordinates":[[67.21851,24.83791],[67.21974,24.84369]]},"properties":{"class":"tertiary","name":null}},{"type":"Feature","geometry":{"type":"LineString","coordinates":[[67.24112,24.83974],[67.22597,24.84009]]},"properties":{"class":"tertiary","name":"General Tyre Road"}},{"type":"Feature","geometry":{"type":"LineString","coordinates":[[67.26243,24.81373],[67.25533,24.81755],[67.25429,24.81876],[67.25167,24.81941],[67.25034,24.81928],[67.24928,24.81823],[67.24723,24.81868],[67.24585,24.81789],[67.24335,24.81769],[67.24009,24.81584],[67.23494,24.8165],[67.23158,24.81626],[67.23064,24.81669],[67.23064,24.81636],[67.22746,24.81595],[67.21047,24.82041],[67.20803,24.82053],[67.20547,24.82034],[67.20513,24.82058]]},"properties":{"class":"tertiary","name":null}},{"type":"Feature","geometry":{"type":"LineString","coordinates":[[67.15873,24.86794],[67.15884,24.86834]]},"properties":{"class":"tertiary","name":null}},{"type":"Feature","geometry":{"type":"LineString","coordinates":[[67.14532,24.87607],[67.14682,24.86846]]},"properties":{"class":"primary","name":"Korangi Shahfaisal Road"}},{"type":"Feature","geometry":{"type":"LineString","coordinates":[[67.15884,24.86834],[67.15938,24.86921],[67.16138,24.87041],[67.16234,24.87167]]},"properties":{"class":"tertiary","name":null}},{"type":"Feature","geometry":{"type":"LineString","coordinates":[[67.13918,24.85592],[67.14233,24.85657],[67.14205,24.85764]]},"properties":{"class":"tertiary","name":null}},{"type":"Feature","geometry":{"type":"LineString","coordinates":[[67.15567,24.86461],[67.15506,24.86588],[67.15447,24.86633],[67.15341,24.86662],[67.14941,24.86562],[67.14843,24.86567]]},"properties":{"class":"primary","name":"Korangi Shahfaisal Road"}},{"type":"Feature","geometry":{"type":"LineString","coordinates":[[67.15993,24.84688],[67.15937,24.84926]]},"properties":{"class":"primary","name":null}},{"type":"Feature","geometry":{"type":"LineString","coordinates":[[67.15756,24.85636],[67.15575,24.85605],[67.15261,24.85482],[67.14713,24.8607]]},"properties":{"class":"tertiary","name":null}},{"type":"Feature","geometry":{"type":"LineString","coordinates":[[67.14682,24.86846],[67.14733,24.86652],[67.14846,24.86575]]},"properties":{"class":"primary","name":null}},{"type":"Feature","geometry":{"type":"LineString","coordinates":[[67.1558,24.86462],[67.15768,24.85639],[67.16019,24.84689]]},"properties":{"class":"primary","name":"Korangi Shahfaisal Road"}},{"type":"Feature","geometry":{"type":"LineString","coordinates":[[67.2085,24.85153],[67.21101,24.85433]]},"properties":{"class":"primary","name":"Landhi Flyover"}},{"type":"Feature","geometry":{"type":"LineString","coordinates":[[67.2112,24.85451],[67.21108,24.8543]]},"properties":{"class":"primary","name":"Landhi Road"}},{"type":"Feature","geometry":{"type":"LineString","coordinates":[[67.19071,24.87753],[67.2002,24.86969],[67.20239,24.86815],[67.20318,24.86716]]},"properties":{"class":"trunk","name":"National Highway"}},{"type":"Feature","geometry":{"type":"LineString","coordinates":[[67.13171,24.84978],[67.14012,24.85147]]},"properties":{"class":"tertiary","name":null}},{"type":"Feature","geometry":{"type":"LineString","coordinates":[[67.1367,24.84647],[67.14111,24.84739]]},"properties":{"class":"tertiary","name":null}},{"type":"Feature","geometry":{"type":"LineString","coordinates":[[67.13809,24.85506],[67.13922,24.85528]]},"properties":{"class":"tertiary","name":null}},{"type":"Feature","geometry":{"type":"LineString","coordinates":[[67.13918,24.85592],[67.14212,24.84332]]},"properties":{"class":"tertiary","name":null}},{"type":"Feature","geometry":{"type":"LineString","coordinates":[[67.12025,24.84157],[67.1415,24.84573]]},"properties":{"class":"tertiary","name":null}},{"type":"Feature","geometry":{"type":"LineString","coordinates":[[67.14751,24.82007],[67.14802,24.81977],[67.14797,24.81946],[67.14764,24.81927],[67.14715,24.8196],[67.14751,24.82007]]},"properties":{"class":"secondary","name":"Coast Guard Chowrangi"}},{"type":"Feature","geometry":{"type":"LineString","coordinates":[[67.16752,24.81566],[67.18088,24.81835]]},"properties":{"class":"tertiary","name":null}},{"type":"Feature","geometry":{"type":"LineString","coordinates":[[67.13566,24.79747],[67.13879,24.79783],[67.14043,24.79825],[67.14139,24.79886],[67.14442,24.80189],[67.14642,24.80288],[67.15758,24.80511],[67.16437,24.80803],[67.16908,24.80894]]},"properties":{"class":"tertiary","name":null}},{"type":"Feature","geometry":{"type":"LineString","coordinates":[[67.20431,24.83952],[67.20411,24.84039],[67.20585,24.84668]]},"properties":{"class":"secondary","name":"Landhi Road"}},{"type":"Feature","geometry":{"type":"LineString","coordinates":[[67.21101,24.85433],[67.21177,24.85548]]},"properties":{"class":"primary","name":"Landhi Road"}},{"type":"Feature","geometry":{"type":"LineString","coordinates":[[67.14799,24.81984],[67.16572,24.82333]]},"properties":{"class":"secondary","name":"Qabrastan Road"}},{"type":"Feature","geometry":{"type":"LineString","coordinates":[[67.18198,24.82631],[67.16575,24.82321]]},"properties":{"class":"tertiary","name":"Qabrastan Road"}},{"type":"Feature","geometry":{"type":"LineString","coordinates":[[67.18351,24.84184],[67.17988,24.84112],[67.1758,24.83927]]},"properties":{"class":"tertiary","name":null}},{"type":"Feature","geometry":{"type":"LineString","coordinates":[[67.14364,24.83667],[67.13509,24.83499]]},"properties":{"class":"tertiary","name":null}},{"type":"Feature","geometry":{"type":"LineString","coordinates":[[67.15464,24.84161],[67.15858,24.82526]]},"properties":{"class":"tertiary","name":null}},{"type":"Feature","geometry":{"type":"LineString","coordinates":[[67.14461,24.8318],[67.13627,24.83004]]},"properties":{"class":"tertiary","name":null}},{"type":"Feature","geometry":{"type":"LineString","coordinates":[[67.1563,24.83423],[67.15761,24.83449]]},"properties":{"class":"tertiary","name":null}},{"type":"Feature","geometry":{"type":"LineString","coordinates":[[67.15844,24.82524],[67.15451,24.84158]]},"properties":{"class":"tertiary","name":null}},{"type":"Feature","geometry":{"type":"LineString","coordinates":[[67.16984,24.83684],[67.16802,24.84436]]},"properties":{"class":"tertiary","name":null}},{"type":"Feature","geometry":{"type":"LineString","coordinates":[[67.16819,24.8444],[67.16998,24.83686]]},"properties":{"class":"tertiary","name":null}},{"type":"Feature","geometry":{"type":"LineString","coordinates":[[67.1816,24.85049],[67.18351,24.84184],[67.18406,24.83969],[67.18432,24.83961]]},"properties":{"class":"secondary","name":null}},{"type":"Feature","geometry":{"type":"LineString","coordinates":[[67.18397,24.83937],[67.18125,24.85037]]},"properties":{"class":"secondary","name":null}},{"type":"Feature","geometry":{"type":"LineString","coordinates":[[67.18211,24.8471],[67.20151,24.85087],[67.20166,24.8511],[67.20297,24.85148]]},"properties":{"class":"tertiary","name":"Shahra e Asim Road"}},{"type":"Feature","geometry":{"type":"LineString","coordinates":[[67.19372,24.84065],[67.19316,24.84921]]},"properties":{"class":"tertiary","name":"Landhi Road"}},{"type":"Feature","geometry":{"type":"LineString","coordinates":[[67.17235,24.87284],[67.15902,24.87725]]},"properties":{"class":"secondary","name":"Azeempura Road"}},{"type":"Feature","geometry":{"type":"LineString","coordinates":[[67.14869,24.87917],[67.15277,24.87916],[67.15609,24.87838]]},"properties":{"class":"secondary","name":"Azeempura Road"}},{"type":"Feature","geometry":{"type":"LineString","coordinates":[[67.18179,24.82644],[67.19357,24.81771],[67.19458,24.81543],[67.1948,24.81373],[67.19567,24.81292],[67.19665,24.81052]]},"properties":{"class":"tertiary","name":null}},{"type":"Feature","geometry":{"type":"LineString","coordinates":[[67.17753,24.82548],[67.17664,24.82906]]},"properties":{"class":"tertiary","name":null}},{"type":"Feature","geometry":{"type":"LineString","coordinates":[[67.17921,24.82594],[67.1808,24.81883]]},"properties":{"class":"tertiary","name":"Street 18"}},{"type":"Feature","geometry":{"type":"LineString","coordinates":[[67.16974,24.82936],[67.171,24.82422]]},"properties":{"class":"tertiary","name":null}},{"type":"Feature","geometry":{"type":"LineString","coordinates":[[67.17094,24.8242],[67.16995,24.82846],[67.16932,24.82922]]},"properties":{"class":"tertiary","name":null}},{"type":"Feature","geometry":{"type":"LineString","coordinates":[[67.15015,24.82537],[67.1552,24.80461]]},"properties":{"class":"tertiary","name":null}},{"type":"Feature","geometry":{"type":"LineString","coordinates":[[67.1593,24.82205],[67.16183,24.81145]]},"properties":{"class":"tertiary","name":"Ghous Pak Road"}},{"type":"Feature","geometry":{"type":"LineString","coordinates":[[67.16804,24.81268],[67.15393,24.80987]]},"properties":{"class":"tertiary","name":null}},{"type":"Feature","geometry":{"type":"LineString","coordinates":[[67.16479,24.82652],[67.14689,24.82298]]},"properties":{"class":"tertiary","name":null}},{"type":"Feature","geometry":{"type":"LineString","coordinates":[[67.14686,24.82309],[67.16476,24.82665]]},"properties":{"class":"tertiary","name":null}},{"type":"Feature","geometry":{"type":"LineString","coordinates":[[67.14303,24.81888],[67.14188,24.82376]]},"properties":{"class":"tertiary","name":null}},{"type":"Feature","geometry":{"type":"LineString","coordinates":[[67.13706,24.82673],[67.14536,24.82833]]},"properties":{"class":"tertiary","name":null}},{"type":"Feature","geometry":{"type":"LineString","coordinates":[[67.13746,24.82504],[67.14567,24.82666]]},"properties":{"class":"tertiary","name":null}},{"type":"Feature","geometry":{"type":"LineString","coordinates":[[67.13665,24.82844],[67.14497,24.83011]]},"properties":{"class":"tertiary","name":null}},{"type":"Feature","geometry":{"type":"LineString","coordinates":[[67.15575,24.85605],[67.15162,24.86297]]},"properties":{"class":"tertiary","name":null}},{"type":"Feature","geometry":{"type":"LineString","coordinates":[[67.14205,24.85764],[67.14428,24.85872],[67.14713,24.8607]]},"properties":{"class":"tertiary","name":null}},{"type":"Feature","geometry":{"type":"LineString","coordinates":[[67.14521,24.87607],[67.14539,24.88213]]},"properties":{"class":"primary","name":"Korangi Shahfaisal Road"}},{"type":"Feature","geometry":{"type":"LineString","coordinates":[[67.14672,24.86843],[67.14521,24.87607]]},"properties":{"class":"primary","name":"Korangi Shahfaisal Road"}},{"type":"Feature","geometry":{"type":"LineString","coordinates":[[67.14571,24.88209],[67.14532,24.87607]]},"properties":{"class":"primary","name":"Korangi Shahfaisal Road"}},{"type":"Feature","geometry":{"type":"LineString","coordinates":[[67.13914,24.8341],[67.14268,24.83478]]},"properties":{"class":"tertiary","name":null}},{"type":"Feature","geometry":{"type":"LineString","coordinates":[[67.14343,24.83162],[67.14229,24.83641]]},"properties":{"class":"tertiary","name":null}},{"type":"Feature","geometry":{"type":"LineString","coordinates":[[67.13949,24.83263],[67.13874,24.83571]]},"properties":{"class":"tertiary","name":null}},{"type":"Feature","geometry":{"type":"LineString","coordinates":[[67.13805,24.83235],[67.1416,24.83304]]},"properties":{"class":"tertiary","name":null}},{"type":"Feature","geometry":{"type":"LineString","coordinates":[[67.14205,24.83119],[67.14127,24.83451]]},"properties":{"class":"tertiary","name":null}},{"type":"Feature","geometry":{"type":"LineString","coordinates":[[67.14995,24.82544],[67.14906,24.82913]]},"properties":{"class":"tertiary","name":null}},{"type":"Feature","geometry":{"type":"LineString","coordinates":[[67.14584,24.8435],[67.14673,24.83987]]},"properties":{"class":"tertiary","name":null}},{"type":"Feature","geometry":{"type":"LineString","coordinates":[[67.14853,24.8322],[67.15639,24.83382]]},"properties":{"class":"tertiary","name":null}},{"type":"Feature","geometry":{"type":"LineString","coordinates":[[67.15305,24.82987],[67.15726,24.83076]]},"properties":{"class":"tertiary","name":null}},{"type":"Feature","geometry":{"type":"LineString","coordinates":[[67.16142,24.83006],[67.16005,24.83485]]},"properties":{"class":"tertiary","name":null}},{"type":"Feature","geometry":{"type":"LineString","coordinates":[[67.15772,24.8288],[67.15927,24.82908],[67.15991,24.82975],[67.16371,24.83052]]},"properties":{"class":"tertiary","name":null}},{"type":"Feature","geometry":{"type":"LineString","coordinates":[[67.15697,24.832],[67.16079,24.83277]]},"properties":{"class":"tertiary","name":null}},{"type":"Feature","geometry":{"type":"LineString","coordinates":[[67.16101,24.83146],[67.15726,24.83076]]},"properties":{"class":"tertiary","name":null}},{"type":"Feature","geometry":{"type":"LineString","coordinates":[[67.16784,24.82933],[67.16734,24.83151]]},"properties":{"class":"tertiary","name":null}},{"type":"Feature","geometry":{"type":"LineString","coordinates":[[67.16984,24.83255],[67.16967,24.83269],[67.16983,24.83283],[67.16998,24.83267],[67.16984,24.83255]]},"properties":{"class":"tertiary","name":null}},{"type":"Feature","geometry":{"type":"LineString","coordinates":[[67.17145,24.83066],[67.16993,24.83259]]},"properties":{"class":"tertiary","name":null}},{"type":"Feature","geometry":{"type":"LineString","coordinates":[[67.18044,24.84005],[67.17975,24.84121]]},"properties":{"class":"tertiary","name":null}},{"type":"Feature","geometry":{"type":"LineString","coordinates":[[67.17497,24.83304],[67.17458,24.83526]]},"properties":{"class":"tertiary","name":null}},{"type":"Feature","geometry":{"type":"LineString","coordinates":[[67.17976,24.8378],[67.17896,24.83762],[67.16996,24.83276]]},"properties":{"class":"tertiary","name":null}},{"type":"Feature","geometry":{"type":"LineString","coordinates":[[67.18179,24.83812],[67.18044,24.84005]]},"properties":{"class":"tertiary","name":null}},{"type":"Feature","geometry":{"type":"LineString","coordinates":[[67.17885,24.83917],[67.18044,24.84005]]},"properties":{"class":"tertiary","name":null}},{"type":"Feature","geometry":{"type":"LineString","coordinates":[[67.17741,24.83497],[67.17636,24.83622]]},"properties":{"class":"tertiary","name":null}},{"type":"Feature","geometry":{"type":"LineString","coordinates":[[67.18194,24.83792],[67.1834,24.83597]]},"properties":{"class":"tertiary","name":null}},{"type":"Feature","geometry":{"type":"LineString","coordinates":[[67.16973,24.83281],[67.16933,24.83339],[67.16943,24.83386],[67.17885,24.83917]]},"properties":{"class":"tertiary","name":null}},{"type":"Feature","geometry":{"type":"LineString","coordinates":[[67.14831,24.81709],[67.1378,24.81497]]},"properties":{"class":"tertiary","name":null}},{"type":"Feature","geometry":{"type":"LineString","coordinates":[[67.14216,24.81584],[67.14153,24.81845]]},"properties":{"class":"tertiary","name":null}},{"type":"Feature","geometry":{"type":"LineString","coordinates":[[67.14605,24.81275],[67.14455,24.81905]]},"properties":{"class":"tertiary","name":null}},{"type":"Feature","geometry":{"type":"LineString","coordinates":[[67.14276,24.81597],[67.14215,24.81857]]},"properties":{"class":"tertiary","name":null}},{"type":"Feature","geometry":{"type":"LineString","coordinates":[[67.14784,24.80318],[67.14643,24.80911]]},"properties":{"class":"tertiary","name":null}},{"type":"Feature","geometry":{"type":"LineString","coordinates":[[67.16852,24.81586],[67.16599,24.82672]]},"properties":{"class":"tertiary","name":null}},{"type":"Feature","geometry":{"type":"LineString","coordinates":[[67.17066,24.81627],[67.16809,24.82714]]},"properties":{"class":"tertiary","name":null}},{"type":"Feature","geometry":{"type":"LineString","coordinates":[[67.17026,24.82756],[67.16479,24.82652]]},"properties":{"class":"tertiary","name":null}},{"type":"Feature","geometry":{"type":"LineString","coordinates":[[67.17673,24.83183],[67.17518,24.83307]]},"properties":{"class":"tertiary","name":null}},{"type":"Feature","geometry":{"type":"LineString","coordinates":[[67.17898,24.83147],[67.1776,24.83258]]},"properties":{"class":"tertiary","name":null}},{"type":"Feature","geometry":{"type":"LineString","coordinates":[[67.17752,24.83277],[67.17764,24.83267],[67.17753,24.83255],[67.1774,24.83266],[67.17752,24.83277]]},"properties":{"class":"tertiary","name":null}},{"type":"Feature","geometry":{"type":"LineString","coordinates":[[67.18137,24.83393],[67.17907,24.83612]]},"properties":{"class":"tertiary","name":null}},{"type":"Feature","geometry":{"type":"LineString","coordinates":[[67.18022,24.83275],[67.17754,24.83492]]},"properties":{"class":"tertiary","name":null}},{"type":"Feature","geometry":{"type":"LineString","coordinates":[[67.17501,24.83003],[67.17312,24.8316]]},"properties":{"class":"tertiary","name":null}},{"type":"Feature","geometry":{"type":"LineString","coordinates":[[67.17159,24.83052],[67.17379,24.82877]]},"properties":{"class":"tertiary","name":null}},{"type":"Feature","geometry":{"type":"LineString","coordinates":[[67.17238,24.82463],[67.17164,24.82784]]},"properties":{"class":"tertiary","name":null}},{"type":"Feature","geometry":{"type":"LineString","coordinates":[[67.17749,24.83276],[67.17638,24.83415]]},"properties":{"class":"tertiary","name":null}},{"type":"Feature","geometry":{"type":"LineString","coordinates":[[67.1776,24.83274],[67.18001,24.83522]]},"properties":{"class":"tertiary","name":null}},{"type":"Feature","geometry":{"type":"LineString","coordinates":[[67.17026,24.82756],[67.17184,24.82789]]},"properties":{"class":"tertiary","name":null}},{"type":"Feature","geometry":{"type":"LineString","coordinates":[[67.17305,24.8317],[67.17156,24.83363]]},"properties":{"class":"tertiary","name":null}},{"type":"Feature","geometry":{"type":"LineString","coordinates":[[67.16842,24.83668],[67.16888,24.8348],[67.16943,24.83386]]},"properties":{"class":"tertiary","name":null}},{"type":"Feature","geometry":{"type":"LineString","coordinates":[[67.1705,24.83707],[67.17081,24.83588]]},"properties":{"class":"tertiary","name":null}},{"type":"Feature","geometry":{"type":"LineString","coordinates":[[67.17293,24.84513],[67.17452,24.8387]]},"properties":{"class":"tertiary","name":null}},{"type":"Feature","geometry":{"type":"LineString","coordinates":[[67.18675,24.83797],[67.18846,24.84066]]},"properties":{"class":"tertiary","name":null}},{"type":"Feature","geometry":{"type":"LineString","coordinates":[[67.18395,24.83923],[67.18512,24.83629],[67.18548,24.83595],[67.18714,24.83532],[67.19096,24.83787]]},"properties":{"class":"tertiary","name":null}},{"type":"Feature","geometry":{"type":"LineString","coordinates":[[67.17403,24.84065],[67.17636,24.84094]]},"properties":{"class":"tertiary","name":null}},{"type":"Feature","geometry":{"type":"LineString","coordinates":[[67.18524,24.83616],[67.19079,24.84001],[67.19146,24.84001],[67.19147,24.84061]]},"properties":{"class":"tertiary","name":null}},{"type":"Feature","geometry":{"type":"LineString","coordinates":[[67.19623,24.8407],[67.18838,24.83547]]},"properties":{"class":"tertiary","name":null}},{"type":"Feature","geometry":{"type":"LineString","coordinates":[[67.18903,24.84274],[67.18974,24.84251]]},"properties":{"class":"tertiary","name":null}},{"type":"Feature","geometry":{"type":"LineString","coordinates":[[67.19339,24.84623],[67.191,24.84513],[67.18925,24.84393],[67.18899,24.84343],[67.18897,24.84214]]},"properties":{"class":"tertiary","name":null}},{"type":"Feature","geometry":{"type":"LineString","coordinates":[[67.14019,24.88525],[67.13977,24.87737]]},"properties":{"class":"tertiary","name":null}},{"type":"Feature","geometry":{"type":"LineString","coordinates":[[67.13968,24.87735],[67.14013,24.88528]]},"properties":{"class":"tertiary","name":null}},{"type":"Feature","geometry":{"type":"LineString","coordinates":[[67.16922,24.87692],[67.16694,24.87636],[67.16614,24.87502]]},"properties":{"class":"tertiary","name":null}},{"type":"Feature","geometry":{"type":"LineString","coordinates":[[67.15169,24.87921],[67.15197,24.87964]]},"properties":{"class":"tertiary","name":null}},{"type":"Feature","geometry":{"type":"LineString","coordinates":[[67.15197,24.87964],[67.15221,24.87919]]},"properties":{"class":"tertiary","name":null}},{"type":"Feature","geometry":{"type":"LineString","coordinates":[[67.15852,24.86528],[67.15822,24.86707],[67.15873,24.86794]]},"properties":{"class":"tertiary","name":null}},{"type":"Feature","geometry":{"type":"LineString","coordinates":[[67.14511,24.87658],[67.14531,24.87822]]},"properties":{"class":"tertiary","name":null}},{"type":"Feature","geometry":{"type":"LineString","coordinates":[[67.16937,24.88466],[67.17024,24.88086],[67.17218,24.87909],[67.17256,24.87785],[67.17349,24.87765],[67.17449,24.87481]]},"properties":{"class":"tertiary","name":"Shamsi Road"}},{"type":"Feature","geometry":{"type":"LineString","coordinates":[[67.17126,24.87321],[67.17141,24.87406],[67.18584,24.87766]]},"properties":{"class":"secondary","name":"Jamia Milla Road"}},{"type":"Feature","geometry":{"type":"LineString","coordinates":[[67.17165,24.87956],[67.16922,24.87692]]},"properties":{"class":"tertiary","name":"Al Badar Road"}},{"type":"Feature","geometry":{"type":"LineString","coordinates":[[67.19237,24.88341],[67.19461,24.87916]]},"properties":{"class":"tertiary","name":null}},{"type":"Feature","geometry":{"type":"LineString","coordinates":[[67.1805,24.8544],[67.18067,24.8546],[67.18294,24.855],[67.18322,24.85522],[67.18223,24.85853],[67.18457,24.8625]]},"properties":{"class":"secondary","name":"Korangi Link Road"}},{"type":"Feature","geometry":{"type":"LineString","coordinates":[[67.18457,24.8625],[67.18544,24.86385]]},"properties":{"class":"secondary","name":"Korangi Link Road"}},{"type":"Feature","geometry":{"type":"LineString","coordinates":[[67.18575,24.86431],[67.18791,24.86697],[67.19299,24.8698],[67.19546,24.8715]]},"properties":{"class":"secondary","name":"Korangi Link Road"}},{"type":"Feature","geometry":{"type":"LineString","coordinates":[[67.13842,24.82101],[67.14235,24.82178]]},"properties":{"class":"tertiary","name":null}},{"type":"Feature","geometry":{"type":"LineString","coordinates":[[67.22724,24.84619],[67.22898,24.85489]]},"properties":{"class":"primary","name":null}},{"type":"Feature","geometry":{"type":"LineString","coordinates":[[67.22909,24.85489],[67.22731,24.84617]]},"properties":{"class":"primary","name":null}},{"type":"Feature","geometry":{"type":"LineString","coordinates":[[67.187,24.84075],[67.18629,24.84067],[67.18201,24.83802]]},"properties":{"class":"primary","name":"Landhi Road"}},{"type":"Feature","geometry":{"type":"LineString","coordinates":[[67.21392,24.8327],[67.21476,24.83694]]},"properties":{"class":"tertiary","name":null}},{"type":"Feature","geometry":{"type":"LineString","coordinates":[[67.2091,24.83538],[67.20842,24.83169]]},"properties":{"class":"tertiary","name":null}},{"type":"Feature","geometry":{"type":"LineString","coordinates":[[67.21276,24.83829],[67.20431,24.83952]]},"properties":{"class":"secondary","name":null}},{"type":"Feature","geometry":{"type":"LineString","coordinates":[[67.21302,24.83865],[67.21333,24.83845],[67.21311,24.83812],[67.21274,24.83836],[67.21302,24.83865]]},"properties":{"class":"secondary","name":"Hussaini Chowrangi"}},{"type":"Feature","geometry":{"type":"LineString","coordinates":[[67.20576,24.83415],[67.21204,24.83335]]},"properties":{"class":"tertiary","name":null}},{"type":"Feature","geometry":{"type":"LineString","coordinates":[[67.21298,24.83812],[67.21183,24.83226]]},"properties":{"class":"tertiary","name":"Sherpao Road"}},{"type":"Feature","geometry":{"type":"LineString","coordinates":[[67.2128,24.83722],[67.21645,24.83671],[67.21573,24.83306]]},"properties":{"class":"tertiary","name":null}},{"type":"Feature","geometry":{"type":"LineString","coordinates":[[67.20856,24.85149],[67.20729,24.8503]]},"properties":{"class":"primary","name":"Landhi Road"}},{"type":"Feature","geometry":{"type":"LineString","coordinates":[[67.2091,24.83538],[67.21233,24.83485]]},"properties":{"class":"tertiary","name":null}},{"type":"Feature","geometry":{"type":"LineString","coordinates":[[67.18944,24.81621],[67.19294,24.8182]]},"properties":{"class":"tertiary","name":null}},{"type":"Feature","geometry":{"type":"LineString","coordinates":[[67.17785,24.80656],[67.1782,24.80779],[67.18025,24.81196],[67.18093,24.81442],[67.18122,24.81445]]},"properties":{"class":"tertiary","name":null}},{"type":"Feature","geometry":{"type":"LineString","coordinates":[[67.18645,24.80748],[67.18658,24.80777],[67.18637,24.80818],[67.18688,24.80959],[67.18887,24.80985],[67.18895,24.81063],[67.18931,24.81084],[67.18918,24.81133],[67.19041,24.81194],[67.18866,24.81963],[67.18846,24.82095],[67.18864,24.8214]]},"properties":{"class":"tertiary","name":null}},{"type":"Feature","geometry":{"type":"LineString","coordinates":[[67.20644,24.82375],[67.20113,24.82075],[67.19888,24.81991],[67.19747,24.81964]]},"properties":{"class":"tertiary","name":null}},{"type":"Feature","geometry":{"type":"LineString","coordinates":[[67.22567,24.83686],[67.22464,24.83566],[67.22295,24.83474],[67.22298,24.83388],[67.22268,24.83316],[67.22291,24.83183],[67.22366,24.82992],[67.22384,24.82848],[67.22481,24.82616],[67.22591,24.82444],[67.22598,24.82313],[67.22733,24.8215],[67.22942,24.8211],[67.22971,24.82059],[67.22989,24.81931],[67.23043,24.81831],[67.23038,24.81716],[67.23064,24.81669]]},"properties":{"class":"tertiary","name":"Rehri Road"}},{"type":"Feature","geometry":{"type":"LineString","coordinates":[[67.22427,24.83276],[67.23238,24.83281],[67.23239,24.83673]]},"properties":{"class":"tertiary","name":"D7 Road"}},{"type":"Feature","geometry":{"type":"LineString","coordinates":[[67.22465,24.82654],[67.22663,24.8273],[67.22818,24.82754],[67.22829,24.83279]]},"properties":{"class":"tertiary","name":"Road No 4"}},{"type":"Feature","geometry":{"type":"LineString","coordinates":[[67.22524,24.83726],[67.22625,24.84151],[67.22616,24.84187]]},"properties":{"class":"primary","name":null}},{"type":"Feature","geometry":{"type":"LineString","coordinates":[[67.22641,24.84186],[67.2256,24.83725]]},"properties":{"class":"primary","name":null}},{"type":"Feature","geometry":{"type":"LineString","coordinates":[[67.22611,24.84197],[67.22627,24.84213],[67.22645,24.84198],[67.22631,24.84182],[67.22611,24.84197]]},"properties":{"class":"primary","name":"Yunus Chowrangi"}},{"type":"Feature","geometry":{"type":"LineString","coordinates":[[67.13397,24.84149],[67.14166,24.84313]]},"properties":{"class":"primary","name":"Main Korangi Road"}},{"type":"Feature","geometry":{"type":"LineString","coordinates":[[67.14877,24.84416],[67.14245,24.84278]]},"properties":{"class":"primary","name":"Main Korangi Road"}},{"type":"Feature","geometry":{"type":"LineString","coordinates":[[67.21757,24.87906],[67.22076,24.87908],[67.2219,24.87972]]},"properties":{"class":"primary","name":"Memon Goth Road"}},{"type":"Feature","geometry":{"type":"LineString","coordinates":[[67.19556,24.87156],[67.19565,24.87199],[67.19448,24.87327],[67.19338,24.87497],[67.19338,24.87528]]},"properties":{"class":"secondary","name":"Korangi Road Link"}},{"type":"Feature","geometry":{"type":"LineString","coordinates":[[67.19546,24.8715],[67.19556,24.87156]]},"properties":{"class":"secondary","name":"Korangi Road Link"}},{"type":"Feature","geometry":{"type":"LineString","coordinates":[[67.18737,24.86636],[67.18237,24.86955],[67.17242,24.87288]]},"properties":{"class":"secondary","name":"Millat Road"}},{"type":"Feature","geometry":{"type":"LineString","coordinates":[[67.17158,24.8741],[67.18142,24.87278],[67.19214,24.86931]]},"properties":{"class":"tertiary","name":"Old Jamia Millia Road"}},{"type":"Feature","geometry":{"type":"LineString","coordinates":[[67.14235,24.84321],[67.14579,24.84378]]},"properties":{"class":"primary","name":"Main Korangi Road"}},{"type":"Feature","geometry":{"type":"LineString","coordinates":[[67.14172,24.84267],[67.13402,24.8412]]},"properties":{"class":"primary","name":"Main Korangi Road"}},{"type":"Feature","geometry":{"type":"LineString","coordinates":[[67.15977,24.84626],[67.14877,24.84416]]},"properties":{"class":"primary","name":"Main Korangi Road"}},{"type":"Feature","geometry":{"type":"LineString","coordinates":[[67.139,24.82891],[67.13944,24.82716]]},"properties":{"class":"tertiary","name":null}},{"type":"Feature","geometry":{"type":"LineString","coordinates":[[67.13964,24.82903],[67.13928,24.83064]]},"properties":{"class":"tertiary","name":null}},{"type":"Feature","geometry":{"type":"LineString","coordinates":[[67.14164,24.82944],[67.14208,24.82767]]},"properties":{"class":"tertiary","name":null}},{"type":"Feature","geometry":{"type":"LineString","coordinates":[[67.22427,24.83276],[67.22369,24.82981]]},"properties":{"class":"tertiary","name":"Road No 9"}},{"type":"Feature","geometry":{"type":"LineString","coordinates":[[67.18085,24.85081],[67.18116,24.85115]]},"properties":{"class":"primary","name":"Singer Chowrangi"}},{"type":"Feature","geometry":{"type":"LineString","coordinates":[[67.20185,24.85497],[67.19668,24.85355],[67.18172,24.85071]]},"properties":{"class":"primary","name":"Main Korangi Road"}},{"type":"Feature","geometry":{"type":"LineString","coordinates":[[67.16041,24.84677],[67.16309,24.84724]]},"properties":{"class":"primary","name":"Main Korangi Road"}},{"type":"Feature","geometry":{"type":"LineString","coordinates":[[67.20556,24.86344],[67.20891,24.8583]]},"properties":{"class":"trunk","name":"National Highway"}},{"type":"Feature","geometry":{"type":"LineString","coordinates":[[67.22521,24.83699],[67.22533,24.83731],[67.22565,24.83718],[67.22552,24.8369],[67.22521,24.83699]]},"properties":{"class":"primary","name":"Hospital Chowrangi"}},{"type":"Feature","geometry":{"type":"LineString","coordinates":[[67.22527,24.83693],[67.21852,24.83767]]},"properties":{"class":"secondary","name":"Mehran Highway"}},{"type":"Feature","geometry":{"type":"LineString","coordinates":[[67.20428,24.83961],[67.21278,24.8385]]},"properties":{"class":"secondary","name":null}},{"type":"Feature","geometry":{"type":"LineString","coordinates":[[67.21858,24.83787],[67.22231,24.83724],[67.22519,24.83718]]},"properties":{"class":"secondary","name":null}},{"type":"Feature","geometry":{"type":"LineString","coordinates":[[67.21838,24.83769],[67.21331,24.83826]]},"properties":{"class":"secondary","name":"Mehran Highway"}},{"type":"Feature","geometry":{"type":"LineString","coordinates":[[67.21835,24.83773],[67.21842,24.8379],[67.2186,24.83783],[67.21852,24.83767],[67.21835,24.83773]]},"properties":{"class":"secondary","name":"Gul Ahmed Chowrangi"}},{"type":"Feature","geometry":{"type":"LineString","coordinates":[[67.21333,24.83845],[67.218,24.83777],[67.21838,24.83787]]},"properties":{"class":"secondary","name":null}},{"type":"Feature","geometry":{"type":"LineString","coordinates":[[67.22652,24.84242],[67.22644,24.84203]]},"properties":{"class":"primary","name":null}},{"type":"Feature","geometry":{"type":"LineString","coordinates":[[67.22627,24.84213],[67.22644,24.84244]]},"properties":{"class":"primary","name":null}},{"type":"Feature","geometry":{"type":"LineString","coordinates":[[67.22644,24.84244],[67.22724,24.84619]]},"properties":{"class":"primary","name":null}},{"type":"Feature","geometry":{"type":"LineString","coordinates":[[67.22731,24.84617],[67.22652,24.84242]]},"properties":{"class":"primary","name":null}},{"type":"Feature","geometry":{"type":"LineString","coordinates":[[67.19064,24.87748],[67.18714,24.87954]]},"properties":{"class":"trunk","name":"National Highway"}},{"type":"Feature","geometry":{"type":"LineString","coordinates":[[67.18718,24.87959],[67.19071,24.87753]]},"properties":{"class":"trunk","name":"National Highway"}},{"type":"Feature","geometry":{"type":"LineString","coordinates":[[67.20595,24.84672],[67.20419,24.84032],[67.20438,24.83951]]},"properties":{"class":"secondary","name":"لانڈھی روڈ"}},{"type":"Feature","geometry":{"type":"LineString","coordinates":[[67.21471,24.85482],[67.21278,24.85499],[67.21105,24.85566],[67.20994,24.85657],[67.20878,24.85826]]},"properties":{"class":"trunk","name":"Quaidabad Bridge"}},{"type":"Feature","geometry":{"type":"LineString","coordinates":[[67.21516,24.85494],[67.23036,24.85491],[67.23989,24.85415],[67.24345,24.85435],[67.24731,24.85331],[67.24885,24.8532],[67.25403,24.85504],[67.2927,24.86442]]},"properties":{"class":"trunk","name":"National Highway"}},{"type":"Feature","geometry":{"type":"LineString","coordinates":[[67.20878,24.85826],[67.20549,24.86341]]},"properties":{"class":"trunk","name":"National Highway"}},{"type":"Feature","geometry":{"type":"LineString","coordinates":[[67.20891,24.8583],[67.20987,24.85684],[67.21113,24.85575],[67.2127,24.85509],[67.21474,24.85489]]},"properties":{"class":"trunk","name":"Quaidabad Bridge"}},{"type":"Feature","geometry":{"type":"LineString","coordinates":[[67.15032,24.866],[67.15272,24.86669],[67.15378,24.8667],[67.15498,24.8661],[67.15565,24.8652],[67.1558,24.86462]]},"properties":{"class":"primary","name":"Korangi Shahfaisal Road"}},{"type":"Feature","geometry":{"type":"LineString","coordinates":[[67.15937,24.84926],[67.15567,24.86461]]},"properties":{"class":"primary","name":"Korangi Shahfaisal Road"}},{"type":"Feature","geometry":{"type":"LineString","coordinates":[[67.19226,24.84386],[67.19348,24.84482]]},"properties":{"class":"tertiary","name":null}},{"type":"Feature","geometry":{"type":"LineString","coordinates":[[67.21319,24.84644],[67.21284,24.84603],[67.21205,24.84226],[67.21355,24.84056],[67.2131,24.83865]]},"properties":{"class":"tertiary","name":null}},{"type":"Feature","geometry":{"type":"LineString","coordinates":[[67.20438,24.83951],[67.20637,24.83165]]},"properties":{"class":"secondary","name":null}},{"type":"Feature","geometry":{"type":"LineString","coordinates":[[67.20478,24.84283],[67.20488,24.84283]]},"properties":{"class":"secondary","name":null}},{"type":"Feature","geometry":{"type":"LineString","coordinates":[[67.20494,24.84304],[67.20485,24.84307]]},"properties":{"class":"secondary","name":null}},{"type":"Feature","geometry":{"type":"LineString","coordinates":[[67.20529,24.84467],[67.20538,24.84464]]},"properties":{"class":"secondary","name":null}},{"type":"Feature","geometry":{"type":"LineString","coordinates":[[67.20542,24.84477],[67.20532,24.84478]]},"properties":{"class":"secondary","name":null}},{"type":"Feature","geometry":{"type":"LineString","coordinates":[[67.20729,24.8503],[67.20691,24.84998]]},"properties":{"class":"primary","name":"Landhi Road"}},{"type":"Feature","geometry":{"type":"LineString","coordinates":[[67.22623,24.83675],[67.22634,24.83277]]},"properties":{"class":"tertiary","name":"D7 Road"}},{"type":"Feature","geometry":{"type":"LineString","coordinates":[[67.14415,24.83357],[67.15391,24.83556],[67.15412,24.83535],[67.15595,24.83565]]},"properties":{"class":"tertiary","name":null}},{"type":"Feature","geometry":{"type":"LineString","coordinates":[[67.14802,24.83438],[67.14914,24.82951]]},"properties":{"class":"tertiary","name":null}},{"type":"Feature","geometry":{"type":"LineString","coordinates":[[67.14638,24.82509],[67.14673,24.8248]]},"properties":{"class":"secondary","name":null}},{"type":"Feature","geometry":{"type":"LineString","coordinates":[[67.14692,24.82176],[67.146,24.82456]]},"properties":{"class":"secondary","name":null}},{"type":"Feature","geometry":{"type":"LineString","coordinates":[[67.14411,24.83533],[67.14616,24.83581]]},"properties":{"class":"tertiary","name":null}},{"type":"Feature","geometry":{"type":"LineString","coordinates":[[67.14616,24.83581],[67.14786,24.82887]]},"properties":{"class":"tertiary","name":null}},{"type":"Feature","geometry":{"type":"LineString","coordinates":[[67.1723,24.82462],[67.17411,24.81697]]},"properties":{"class":"tertiary","name":null}},{"type":"Feature","geometry":{"type":"LineString","coordinates":[[67.174,24.82672],[67.17454,24.8249]]},"properties":{"class":"tertiary","name":null}},{"type":"Feature","geometry":{"type":"LineString","coordinates":[[67.17184,24.82789],[67.174,24.82672]]},"properties":{"class":"tertiary","name":null}},{"type":"Feature","geometry":{"type":"LineString","coordinates":[[67.17379,24.82877],[67.17426,24.82839]]},"properties":{"class":"tertiary","name":null}},{"type":"Feature","geometry":{"type":"LineString","coordinates":[[67.17379,24.82877],[67.17745,24.83257]]},"properties":{"class":"tertiary","name":null}},{"type":"Feature","geometry":{"type":"LineString","coordinates":[[67.18195,24.83813],[67.18198,24.83795],[67.18178,24.83794],[67.18176,24.83809],[67.18195,24.83813]]},"properties":{"class":"primary","name":null}},{"type":"Feature","geometry":{"type":"LineString","coordinates":[[67.18191,24.83814],[67.18593,24.84063],[67.19226,24.84386],[67.19392,24.84394],[67.20225,24.84549],[67.20362,24.8464],[67.20478,24.84615]]},"properties":{"class":"primary","name":"Landhi Road"}},{"type":"Feature","geometry":{"type":"LineString","coordinates":[[67.18186,24.83791],[67.17994,24.83678],[67.17424,24.83238],[67.16954,24.82924],[67.16766,24.82932],[67.16019,24.82794],[67.15875,24.82763],[67.1563,24.82661],[67.11854,24.81909]]},"properties":{"class":"primary","name":"Landhi Road"}},{"type":"Feature","geometry":{"type":"LineString","coordinates":[[67.14713,24.8607],[67.15162,24.86297]]},"properties":{"class":"tertiary","name":null}},{"type":"Feature","geometry":{"type":"LineString","coordinates":[[67.15162,24.86297],[67.15236,24.8635]]},"properties":{"class":"tertiary","name":null}},{"type":"Feature","geometry":{"type":"LineString","coordinates":[[67.154,24.82618],[67.15278,24.83126]]},"properties":{"class":"tertiary","name":null}},{"type":"Feature","geometry":{"type":"LineString","coordinates":[[67.16167,24.81143],[67.15917,24.82203]]},"properties":{"class":"tertiary","name":"Ghous Pak Road"}},{"type":"Feature","geometry":{"type":"LineString","coordinates":[[67.17645,24.84101],[67.17877,24.84152]]},"properties":{"class":"tertiary","name":null}},{"type":"Feature","geometry":{"type":"LineString","coordinates":[[67.17788,24.84135],[67.17813,24.84032],[67.17957,24.83835],[67.17973,24.83783]]},"properties":{"class":"tertiary","name":null}},{"type":"Feature","geometry":{"type":"LineString","coordinates":[[67.13977,24.87737],[67.13565,24.87648]]},"properties":{"class":"secondary","name":"Azeempura Road"}},{"type":"Feature","geometry":{"type":"LineString","coordinates":[[67.15784,24.83441],[67.15633,24.8341]]},"properties":{"class":"tertiary","name":null}},{"type":"Feature","geometry":{"type":"LineString","coordinates":[[67.15782,24.83453],[67.15911,24.83478]]},"properties":{"class":"tertiary","name":null}},{"type":"Feature","geometry":{"type":"LineString","coordinates":[[67.15761,24.83449],[67.15782,24.83453]]},"properties":{"class":"tertiary","name":null}},{"type":"Feature","geometry":{"type":"LineString","coordinates":[[67.15914,24.83467],[67.15784,24.83441]]},"properties":{"class":"tertiary","name":null}},{"type":"Feature","geometry":{"type":"LineString","coordinates":[[67.15911,24.83478],[67.17052,24.83707],[67.17981,24.84124],[67.18347,24.84199]]},"properties":{"class":"tertiary","name":null}},{"type":"Feature","geometry":{"type":"LineString","coordinates":[[67.16005,24.83485],[67.15914,24.83467]]},"properties":{"class":"tertiary","name":null}},{"type":"Feature","geometry":{"type":"LineString","coordinates":[[67.16324,24.83304],[67.16338,24.83307]]},"properties":{"class":"secondary","name":null}},{"type":"Feature","geometry":{"type":"LineString","coordinates":[[67.16211,24.83775],[67.16093,24.84267]]},"properties":{"class":"secondary","name":"Korangi Shahfaisal Road"}},{"type":"Feature","geometry":{"type":"LineString","coordinates":[[67.16225,24.83778],[67.1644,24.82885]]},"properties":{"class":"secondary","name":"Korangi Shahfaisal Road"}},{"type":"Feature","geometry":{"type":"LineString","coordinates":[[67.16109,24.8427],[67.16093,24.84267]]},"properties":{"class":"tertiary","name":"Shah Muhammad Road"}},{"type":"Feature","geometry":{"type":"LineString","coordinates":[[67.16109,24.8427],[67.16225,24.83778]]},"properties":{"class":"secondary","name":"Korangi Shahfaisal Road"}},{"type":"Feature","geometry":{"type":"LineString","coordinates":[[67.16093,24.84267],[67.16094,24.84289]]},"properties":{"class":"secondary","name":"Korangi Shahfaisal Road"}},{"type":"Feature","geometry":{"type":"LineString","coordinates":[[67.16093,24.84267],[67.14884,24.84029]]},"properties":{"class":"tertiary","name":"Shah Muhammad Road"}},{"type":"Feature","geometry":{"type":"LineString","coordinates":[[67.16094,24.84289],[67.16103,24.84291]]},"properties":{"class":"tertiary","name":"Shah Muhammad Road"}},{"type":"Feature","geometry":{"type":"LineString","coordinates":[[67.16094,24.84289],[67.16006,24.84613]]},"properties":{"class":"secondary","name":"Korangi Shahfaisal Road"}},{"type":"Feature","geometry":{"type":"LineString","coordinates":[[67.16103,24.84291],[67.16109,24.8427]]},"properties":{"class":"secondary","name":"Korangi Shahfaisal Road"}},{"type":"Feature","geometry":{"type":"LineString","coordinates":[[67.16819,24.8444],[67.18211,24.8471]]},"properties":{"class":"tertiary","name":"Shah Muhammad Road"}},{"type":"Feature","geometry":{"type":"LineString","coordinates":[[67.13465,24.83763],[67.1467,24.84003]]},"properties":{"class":"tertiary","name":"Shah Muhammad Road"}},{"type":"Feature","geometry":{"type":"LineString","coordinates":[[67.14906,24.82913],[67.14785,24.83433]]},"properties":{"class":"tertiary","name":null}},{"type":"Feature","geometry":{"type":"LineString","coordinates":[[67.14922,24.82916],[67.15012,24.82547]]},"properties":{"class":"tertiary","name":null}},{"type":"Feature","geometry":{"type":"LineString","coordinates":[[67.14914,24.82951],[67.14922,24.82916]]},"properties":{"class":"tertiary","name":null}},{"type":"Feature","geometry":{"type":"LineString","coordinates":[[67.14785,24.83433],[67.14743,24.83611]]},"properties":{"class":"tertiary","name":null}},{"type":"Feature","geometry":{"type":"LineString","coordinates":[[67.14743,24.83611],[67.14759,24.83614]]},"properties":{"class":"tertiary","name":null}},{"type":"Feature","geometry":{"type":"LineString","coordinates":[[67.14743,24.83611],[67.14657,24.83984]]},"properties":{"class":"tertiary","name":null}},{"type":"Feature","geometry":{"type":"LineString","coordinates":[[67.14759,24.83614],[67.14802,24.83438]]},"properties":{"class":"tertiary","name":null}},{"type":"Feature","geometry":{"type":"LineString","coordinates":[[67.14657,24.83984],[67.1345,24.83746]]},"properties":{"class":"tertiary","name":"Shah Muhammad Road"}},{"type":"Feature","geometry":{"type":"LineString","coordinates":[[67.14657,24.83984],[67.14572,24.84347]]},"properties":{"class":"tertiary","name":null}},{"type":"Feature","geometry":{"type":"LineString","coordinates":[[67.14673,24.83987],[67.14657,24.83984]]},"properties":{"class":"tertiary","name":"Shah Muhammad Road"}},{"type":"Feature","geometry":{"type":"LineString","coordinates":[[67.14673,24.83987],[67.14759,24.83614]]},"properties":{"class":"tertiary","name":null}},{"type":"Feature","geometry":{"type":"LineString","coordinates":[[67.15605,24.8783],[67.15269,24.87907],[67.14869,24.87907]]},"properties":{"class":"secondary","name":"Azeempura Road"}},{"type":"Feature","geometry":{"type":"LineString","coordinates":[[67.15609,24.87838],[67.15905,24.87738]]},"properties":{"class":"secondary","name":"Azeempura Road"}},{"type":"Feature","geometry":{"type":"LineString","coordinates":[[67.15905,24.87738],[67.15909,24.87746]]},"properties":{"class":"tertiary","name":null}},{"type":"Feature","geometry":{"type":"LineString","coordinates":[[67.15905,24.87738],[67.17235,24.87284]]},"properties":{"class":"secondary","name":"Azeempura Road"}},{"type":"Feature","geometry":{"type":"LineString","coordinates":[[67.15902,24.87725],[67.15605,24.8783]]},"properties":{"class":"secondary","name":"Azeempura Road"}},{"type":"Feature","geometry":{"type":"LineString","coordinates":[[67.21518,24.8548],[67.21471,24.85482]]},"properties":{"class":"trunk","name":"National Highway"}},{"type":"Feature","geometry":{"type":"LineString","coordinates":[[67.21474,24.85489],[67.21516,24.85494]]},"properties":{"class":"trunk","name":"National Highway"}},{"type":"Feature","geometry":{"type":"LineString","coordinates":[[67.14361,24.87813],[67.1418,24.87782]]},"properties":{"class":"secondary","name":"Azeempura Road"}},{"type":"Feature","geometry":{"type":"LineString","coordinates":[[67.14196,24.87799],[67.14533,24.8787]]},"properties":{"class":"secondary","name":"Azeempura Road"}},{"type":"Feature","geometry":{"type":"LineString","coordinates":[[67.1418,24.87782],[67.13977,24.87737]]},"properties":{"class":"secondary","name":"Azeempura Road"}},{"type":"Feature","geometry":{"type":"LineString","coordinates":[[67.13564,24.8766],[67.14196,24.87799]]},"properties":{"class":"secondary","name":"Azeempura Road"}},{"type":"Feature","geometry":{"type":"LineString","coordinates":[[67.14726,24.87905],[67.14869,24.87917]]},"properties":{"class":"secondary","name":"Azeempura Road"}},{"type":"Feature","geometry":{"type":"LineString","coordinates":[[67.14869,24.87907],[67.14546,24.87853]]},"properties":{"class":"secondary","name":"Azeempura Road"}},{"type":"Feature","geometry":{"type":"LineString","coordinates":[[67.14546,24.87872],[67.14726,24.87905]]},"properties":{"class":"secondary","name":"Azeempura Road"}},{"type":"Feature","geometry":{"type":"LineString","coordinates":[[67.14532,24.8785],[67.14361,24.87813]]},"properties":{"class":"secondary","name":"Azeempura Road"}},{"type":"Feature","geometry":{"type":"LineString","coordinates":[[67.1584,24.8802],[67.15909,24.87746]]},"properties":{"class":"tertiary","name":null}},{"type":"Feature","geometry":{"type":"LineString","coordinates":[[67.20184,24.85509],[67.20223,24.85502]]},"properties":{"class":"primary","name":"Main Korangi Road"}},{"type":"Feature","geometry":{"type":"LineString","coordinates":[[67.20214,24.85493],[67.20185,24.85497]]},"properties":{"class":"primary","name":"Main Korangi Road"}},{"type":"Feature","geometry":{"type":"LineString","coordinates":[[67.18164,24.85101],[67.19702,24.85379],[67.20184,24.85509]]},"properties":{"class":"primary","name":"Main Korangi Road"}},{"type":"Feature","geometry":{"type":"LineString","coordinates":[[67.14579,24.84378],[67.14722,24.84404]]},"properties":{"class":"primary","name":"Main Korangi Road"}},{"type":"Feature","geometry":{"type":"LineString","coordinates":[[67.16774,24.84816],[67.18085,24.85081]]},"properties":{"class":"primary","name":"Main Korangi Road"}},{"type":"Feature","geometry":{"type":"LineString","coordinates":[[67.16869,24.84812],[67.16052,24.84648]]},"properties":{"class":"primary","name":"Main Korangi Road"}},{"type":"Feature","geometry":{"type":"LineString","coordinates":[[67.1879,24.87815],[67.18835,24.87842],[67.18831,24.8787],[67.18714,24.87947]]},"properties":{"class":"secondary","name":null}},{"type":"Feature","geometry":{"type":"LineString","coordinates":[[67.18951,24.87812],[67.18906,24.87831],[67.1879,24.87815]]},"properties":{"class":"secondary","name":"Jamia Milla Road"}},{"type":"Feature","geometry":{"type":"LineString","coordinates":[[67.22674,24.85475],[67.21518,24.8548]]},"properties":{"class":"trunk","name":"National Highway"}},{"type":"Feature","geometry":{"type":"LineString","coordinates":[[67.23163,24.85474],[67.22674,24.85475]]},"properties":{"class":"trunk","name":"National Highway"}},{"type":"Feature","geometry":{"type":"LineString","coordinates":[[67.21181,24.85546],[67.2112,24.85451]]},"properties":{"class":"primary","name":null}},{"type":"Feature","geometry":{"type":"LineString","coordinates":[[67.1808,24.81883],[67.17906,24.82591]]},"properties":{"class":"tertiary","name":"Street 18"}},{"type":"Feature","geometry":{"type":"LineString","coordinates":[[67.20719,24.85038],[67.20214,24.85493]]},"properties":{"class":"primary","name":"Main Korangi Road"}},{"type":"Feature","geometry":{"type":"LineString","coordinates":[[67.20719,24.85038],[67.2085,24.85153]]},"properties":{"class":"primary","name":"Landhi Road"}},{"type":"Feature","geometry":{"type":"LineString","coordinates":[[67.15768,24.85639],[67.15756,24.85636]]},"properties":{"class":"tertiary","name":null}},{"type":"Feature","geometry":{"type":"LineString","coordinates":[[67.17398,24.81694],[67.17219,24.8246]]},"properties":{"class":"tertiary","name":null}},{"type":"Feature","geometry":{"type":"LineString","coordinates":[[67.13623,24.83019],[67.14461,24.8318]]},"properties":{"class":"tertiary","name":null}},{"type":"Feature","geometry":{"type":"LineString","coordinates":[[67.22565,24.83718],[67.22625,24.83686],[67.24103,24.83687]]},"properties":{"class":"primary","name":"Mehran Highway"}},{"type":"Feature","geometry":{"type":"LineString","coordinates":[[67.24101,24.83674],[67.22623,24.83675],[67.22552,24.8369]]},"properties":{"class":"primary","name":"Mehran Highway"}},{"type":"Feature","geometry":{"type":"LineString","coordinates":[[67.16476,24.82665],[67.17023,24.82771]]},"properties":{"class":"tertiary","name":null}},{"type":"Feature","geometry":{"type":"LineString","coordinates":[[67.16895,24.80891],[67.16559,24.82317]]},"properties":{"class":"tertiary","name":"Korangi Shahfaisal Road"}},{"type":"Feature","geometry":{"type":"LineString","coordinates":[[67.16575,24.82321],[67.16908,24.80894]]},"properties":{"class":"tertiary","name":"Korangi Shahfaisal Road"}},{"type":"Feature","geometry":{"type":"LineString","coordinates":[[67.16103,24.84291],[67.16819,24.8444]]},"properties":{"class":"tertiary","name":"Shah Muhammad Road"}},{"type":"Feature","geometry":{"type":"LineString","coordinates":[[67.16823,24.84417],[67.16109,24.8427]]},"properties":{"class":"tertiary","name":"Shah Muhammad Road"}},{"type":"Feature","geometry":{"type":"LineString","coordinates":[[67.19015,24.84848],[67.16823,24.84417]]},"properties":{"class":"tertiary","name":"Shah Muhammad Road"}},{"type":"Feature","geometry":{"type":"LineString","coordinates":[[67.16575,24.82321],[67.14803,24.81969]]},"properties":{"class":"secondary","name":"Qabrastan Road"}},{"type":"Feature","geometry":{"type":"LineString","coordinates":[[67.16572,24.82333],[67.18179,24.82644]]},"properties":{"class":"tertiary","name":"Qabrastan Road"}},{"type":"Feature","geometry":{"type":"LineString","coordinates":[[67.17711,24.82954],[67.18179,24.82644]]},"properties":{"class":"tertiary","name":null}},{"type":"Feature","geometry":{"type":"LineString","coordinates":[[67.14779,24.81931],[67.15146,24.80389]]},"properties":{"class":"tertiary","name":"Korangi No.2.5 Road"}},{"type":"Feature","geometry":{"type":"LineString","coordinates":[[67.20637,24.83165],[67.20664,24.83096]]},"properties":{"class":"secondary","name":null}},{"type":"Feature","geometry":{"type":"LineString","coordinates":[[67.16412,24.8756],[67.16294,24.87251]]},"properties":{"class":"tertiary","name":null}},{"type":"Feature","geometry":{"type":"LineString","coordinates":[[67.13963,24.81533],[67.13901,24.81795]]},"properties":{"class":"tertiary","name":null}},{"type":"Feature","geometry":{"type":"LineString","coordinates":[[67.14494,24.81071],[67.14467,24.81183],[67.14503,24.81248],[67.14915,24.81338]]},"properties":{"class":"tertiary","name":null}},{"type":"Feature","geometry":{"type":"LineString","coordinates":[[67.17458,24.83526],[67.17279,24.83804]]},"properties":{"class":"tertiary","name":null}},{"type":"Feature","geometry":{"type":"LineString","coordinates":[[67.17081,24.83588],[67.17137,24.83499]]},"properties":{"class":"tertiary","name":null}},{"type":"Feature","geometry":{"type":"LineString","coordinates":[[67.1758,24.83927],[67.17054,24.83694],[67.16005,24.83485]]},"properties":{"class":"tertiary","name":null}},{"type":"Feature","geometry":{"type":"LineString","coordinates":[[67.16734,24.83151],[67.16968,24.83262]]},"properties":{"class":"tertiary","name":null}},{"type":"Feature","geometry":{"type":"LineString","coordinates":[[67.18137,24.83393],[67.18471,24.83728]]},"properties":{"class":"tertiary","name":null}},{"type":"Feature","geometry":{"type":"LineString","coordinates":[[67.17664,24.82906],[67.18137,24.83393]]},"properties":{"class":"tertiary","name":null}},{"type":"Feature","geometry":{"type":"LineString","coordinates":[[67.17426,24.82839],[67.17559,24.82835],[67.17664,24.82906]]},"properties":{"class":"tertiary","name":null}},{"type":"Feature","geometry":{"type":"LineString","coordinates":[[67.16309,24.84724],[67.16774,24.84816]]},"properties":{"class":"primary","name":"Main Korangi Road"}},{"type":"Feature","geometry":{"type":"LineString","coordinates":[[67.16754,24.81556],[67.17414,24.81684]]},"properties":{"class":"tertiary","name":null}},{"type":"Feature","geometry":{"type":"LineString","coordinates":[[67.20935,24.84926],[67.20719,24.85038]]},"properties":{"class":"primary","name":"Main Korangi Road"}},{"type":"Feature","geometry":{"type":"LineString","coordinates":[[67.20223,24.85502],[67.20736,24.85037],[67.20952,24.8493]]},"properties":{"class":"primary","name":"Main Korangi Road"}},{"type":"Feature","geometry":{"type":"LineString","coordinates":[[67.20952,24.8493],[67.21159,24.84799],[67.21463,24.84512],[67.22061,24.84345]]},"properties":{"class":"primary","name":"Main Korangi Road"}},{"type":"Feature","geometry":{"type":"LineString","coordinates":[[67.22612,24.84193],[67.22576,24.84206]]},"properties":{"class":"primary","name":"Main Korangi Road"}},{"type":"Feature","geometry":{"type":"LineString","coordinates":[[67.22579,24.84215],[67.22625,24.84212]]},"properties":{"class":"primary","name":"Main Korangi Road"}},{"type":"Feature","geometry":{"type":"LineString","coordinates":[[67.13507,24.83508],[67.1434,24.83674]]},"properties":{"class":"tertiary","name":null}},{"type":"Feature","geometry":{"type":"LineString","coordinates":[[67.1504,24.82367],[67.14997,24.82534]]},"properties":{"class":"tertiary","name":null}},{"type":"Feature","geometry":{"type":"LineString","coordinates":[[67.15275,24.8146],[67.1504,24.82367]]},"properties":{"class":"tertiary","name":null}},{"type":"Feature","geometry":{"type":"LineString","coordinates":[[67.14085,24.84735],[67.14126,24.84569]]},"properties":{"class":"tertiary","name":null}},{"type":"Feature","geometry":{"type":"LineString","coordinates":[[67.13991,24.85144],[67.14085,24.84735]]},"properties":{"class":"tertiary","name":null}},{"type":"Feature","geometry":{"type":"LineString","coordinates":[[67.15168,24.86302],[67.15583,24.85607]]},"properties":{"class":"tertiary","name":null}},{"type":"Feature","geometry":{"type":"LineString","coordinates":[[67.18122,24.81445],[67.18338,24.81439]]},"properties":{"class":"tertiary","name":null}},{"type":"Feature","geometry":{"type":"LineString","coordinates":[[67.13031,24.87086],[67.13327,24.87123],[67.13722,24.87246],[67.14199,24.87553],[67.14359,24.87614],[67.14503,24.8764],[67.14511,24.87658]]},"properties":{"class":"tertiary","name":null}},{"type":"Feature","geometry":{"type":"LineString","coordinates":[[67.20718,24.83144],[67.21185,24.83239]]},"properties":{"class":"tertiary","name":null}},{"type":"Feature","geometry":{"type":"LineString","coordinates":[[67.20658,24.83089],[67.2063,24.83113],[67.20431,24.83952]]},"properties":{"class":"secondary","name":null}},{"type":"Feature","geometry":{"type":"LineString","coordinates":[[67.19753,24.81257],[67.1975,24.8125]]},"properties":{"class":"secondary","name":"Ibrahim Hyderi Road"}},{"type":"Feature","geometry":{"type":"LineString","coordinates":[[67.20747,24.82728],[67.20785,24.82543],[67.20631,24.82354],[67.20633,24.8215],[67.20052,24.81765],[67.1998,24.81764],[67.19778,24.81322]]},"properties":{"class":"secondary","name":"Ibrahim Hyderi Road"}},{"type":"Feature","geometry":{"type":"LineString","coordinates":[[67.19924,24.81235],[67.19951,24.81635],[67.19991,24.81716],[67.20052,24.81765]]},"properties":{"class":"tertiary","name":null}},{"type":"Feature","geometry":{"type":"LineString","coordinates":[[67.19923,24.81225],[67.19924,24.81235]]},"properties":{"class":"tertiary","name":null}},{"type":"Feature","geometry":{"type":"LineString","coordinates":[[67.19476,24.80497],[67.2013,24.80504],[67.2012,24.80661],[67.19952,24.8085],[67.19907,24.80942],[67.19923,24.81225]]},"properties":{"class":"tertiary","name":null}},{"type":"Feature","geometry":{"type":"LineString","coordinates":[[67.18338,24.81439],[67.18387,24.8153],[67.18369,24.81695],[67.19228,24.81871]]},"properties":{"class":"tertiary","name":null}},{"type":"Feature","geometry":{"type":"LineString","coordinates":[[67.14397,24.8353],[67.14411,24.83533]]},"properties":{"class":"tertiary","name":null}},{"type":"Feature","geometry":{"type":"LineString","coordinates":[[67.14598,24.82467],[67.14544,24.82802]]},"properties":{"class":"secondary","name":null}},{"type":"Feature","geometry":{"type":"LineString","coordinates":[[67.14678,24.82235],[67.14549,24.82776]]},"properties":{"class":"secondary","name":"Korangi No.2.5 Road"}},{"type":"Feature","geometry":{"type":"LineString","coordinates":[[67.14735,24.82001],[67.14692,24.82176]]},"properties":{"class":"secondary","name":"Korangi No.2.5 Road"}},{"type":"Feature","geometry":{"type":"LineString","coordinates":[[67.14536,24.8089],[67.15003,24.80985]]},"properties":{"class":"tertiary","name":null}},{"type":"Feature","geometry":{"type":"LineString","coordinates":[[67.1744,24.83865],[67.17281,24.84511]]},"properties":{"class":"tertiary","name":null}},{"type":"Feature","geometry":{"type":"LineString","coordinates":[[67.19184,24.88278],[67.1882,24.87904]]},"properties":{"class":"secondary","name":null}},{"type":"Feature","geometry":{"type":"LineString","coordinates":[[67.18816,24.87907],[67.19184,24.88278]]},"properties":{"class":"secondary","name":null}},{"type":"Feature","geometry":{"type":"LineString","coordinates":[[67.20244,24.87885],[67.20253,24.87994]]},"properties":{"class":"tertiary","name":null}},{"type":"Feature","geometry":{"type":"LineString","coordinates":[[67.18584,24.87766],[67.1879,24.87815]]},"properties":{"class":"secondary","name":"Jamia Milla Road"}},{"type":"Feature","geometry":{"type":"LineString","coordinates":[[67.19096,24.87721],[67.18951,24.87812]]},"properties":{"class":"secondary","name":"Jamia Milla Road"}},{"type":"Feature","geometry":{"type":"LineString","coordinates":[[67.20881,24.87841],[67.21133,24.87856]]},"properties":{"class":"primary","name":"Bakra Peri Road"}},{"type":"Feature","geometry":{"type":"LineString","coordinates":[[67.21133,24.87856],[67.21643,24.87854],[67.21757,24.87906]]},"properties":{"class":"primary","name":"Bakra Peri Road"}},{"type":"Feature","geometry":{"type":"LineString","coordinates":[[67.1805,24.8544],[67.18129,24.85117]]},"properties":{"class":"secondary","name":null}},{"type":"Feature","geometry":{"type":"LineString","coordinates":[[67.18116,24.85115],[67.1805,24.8544]]},"properties":{"class":"secondary","name":null}},{"type":"Feature","geometry":{"type":"LineString","coordinates":[[67.20028,24.85441],[67.20297,24.85148]]},"properties":{"class":"tertiary","name":null}},{"type":"Feature","geometry":{"type":"LineString","coordinates":[[67.19018,24.84858],[67.19015,24.84848]]},"properties":{"class":"tertiary","name":null}},{"type":"Feature","geometry":{"type":"LineString","coordinates":[[67.20471,24.84617],[67.20599,24.84687]]},"properties":{"class":"primary","name":"Landhi Road"}},{"type":"Feature","geometry":{"type":"LineString","coordinates":[[67.20585,24.84668],[67.20667,24.84973],[67.20719,24.85038]]},"properties":{"class":"primary","name":"Landhi Road"}},{"type":"Feature","geometry":{"type":"LineString","coordinates":[[67.20691,24.84998],[67.20595,24.84672]]},"properties":{"class":"primary","name":"Landhi Road"}},{"type":"Feature","geometry":{"type":"LineString","coordinates":[[67.14616,24.83581],[67.14743,24.83611]]},"properties":{"class":"tertiary","name":null}},{"type":"Feature","geometry":{"type":"LineString","coordinates":[[67.15583,24.86447],[67.15852,24.86528]]},"properties":{"class":"tertiary","name":null}},{"type":"Feature","geometry":{"type":"LineString","coordinates":[[67.14649,24.82466],[67.14759,24.82007]]},"properties":{"class":"secondary","name":"Korangi No.2.5 Road"}},{"type":"Feature","geometry":{"type":"LineString","coordinates":[[67.14846,24.86575],[67.14918,24.86568],[67.15032,24.866]]},"properties":{"class":"primary","name":null}},{"type":"Feature","geometry":{"type":"LineString","coordinates":[[67.14843,24.86567],[67.14774,24.86598],[67.14725,24.8665],[67.14672,24.86843]]},"properties":{"class":"primary","name":"Korangi Shahfaisal Road"}},{"type":"Feature","geometry":{"type":"LineString","coordinates":[[67.1452,24.81634],[67.14834,24.81696]]},"properties":{"class":"tertiary","name":null}},{"type":"Feature","geometry":{"type":"LineString","coordinates":[[67.14544,24.82802],[67.14536,24.82833]]},"properties":{"class":"secondary","name":"Korangi No.2.5 Road"}},{"type":"Feature","geometry":{"type":"LineString","coordinates":[[67.1472,24.81946],[67.12682,24.81553],[67.12663,24.81575]]},"properties":{"class":"secondary","name":null}},{"type":"Feature","geometry":{"type":"LineString","coordinates":[[67.13081,24.87005],[67.13631,24.87157],[67.14337,24.87283],[67.15122,24.87407],[67.1547,24.87411],[67.15865,24.87346],[67.18113,24.86554],[67.18592,24.86417],[67.18952,24.86372],[67.19203,24.86373],[67.19459,24.86395],[67.19852,24.86476]]},"properties":{"class":"motorway","name":"Shahrah-e-Bhutto"}},{"type":"Feature","geometry":{"type":"LineString","coordinates":[[67.1986,24.86466],[67.19485,24.86384],[67.19204,24.86358],[67.18874,24.86367],[67.18588,24.86406],[67.1811,24.86542],[67.15862,24.87334],[67.15433,24.87401],[67.14992,24.87379],[67.13538,24.87124]]},"properties":{"class":"motorway","name":"Shahrah-e-Bhutto"}},{"type":"Feature","geometry":{"type":"LineString","coordinates":[[67.15278,24.83126],[67.15256,24.83303]]},"properties":{"class":"tertiary","name":null}},{"type":"Feature","geometry":{"type":"LineString","coordinates":[[67.15278,24.83126],[67.15415,24.8262]]},"properties":{"class":"tertiary","name":null}},{"type":"Feature","geometry":{"type":"LineString","coordinates":[[67.19778,24.81322],[67.19753,24.81257]]},"properties":{"class":"secondary","name":"Ibrahim Hyderi Road"}},{"type":"Feature","geometry":{"type":"LineString","coordinates":[[67.14536,24.8089],[67.14494,24.81071]]},"properties":{"class":"tertiary","name":null}},{"type":"Feature","geometry":{"type":"LineString","coordinates":[[67.16443,24.82874],[67.16575,24.82321]]},"properties":{"class":"secondary","name":"Korangi Shahfaisal Road"}},{"type":"Feature","geometry":{"type":"LineString","coordinates":[[67.1634,24.83233],[67.16324,24.83304]]},"properties":{"class":"secondary","name":"Korangi Shahfaisal Road"}},{"type":"Feature","geometry":{"type":"LineString","coordinates":[[67.1647,24.8269],[67.16412,24.82868]]},"properties":{"class":"secondary","name":null}},{"type":"Feature","geometry":{"type":"LineString","coordinates":[[67.16476,24.82665],[67.16468,24.82697]]},"properties":{"class":"secondary","name":"Korangi Shahfaisal Road"}},{"type":"Feature","geometry":{"type":"LineString","coordinates":[[67.16468,24.82697],[67.1634,24.83233]]},"properties":{"class":"secondary","name":"Korangi Shahfaisal Road"}},{"type":"Feature","geometry":{"type":"LineString","coordinates":[[67.16559,24.82317],[67.16476,24.82665]]},"properties":{"class":"secondary","name":"Korangi Shahfaisal Road"}},{"type":"Feature","geometry":{"type":"LineString","coordinates":[[67.20664,24.83096],[67.20747,24.82728]]},"properties":{"class":"secondary","name":"Ibrahim Hyderi Road"}},{"type":"Feature","geometry":{"type":"LineString","coordinates":[[67.20747,24.82728],[67.20658,24.83089]]},"properties":{"class":"secondary","name":"Ibrahim Hyderi Road"}},{"type":"Feature","geometry":{"type":"LineString","coordinates":[[67.21183,24.83226],[67.20704,24.83135]]},"properties":{"class":"tertiary","name":null}},{"type":"Feature","geometry":{"type":"LineString","coordinates":[[67.20645,24.83143],[67.20627,24.83142]]},"properties":{"class":"tertiary","name":null}},{"type":"Feature","geometry":{"type":"LineString","coordinates":[[67.20645,24.83143],[67.20718,24.83144]]},"properties":{"class":"tertiary","name":null}},{"type":"Feature","geometry":{"type":"LineString","coordinates":[[67.14096,24.84563],[67.14132,24.84543]]},"properties":{"class":"tertiary","name":null}},{"type":"Feature","geometry":{"type":"LineString","coordinates":[[67.14881,24.84043],[67.16094,24.84289]]},"properties":{"class":"tertiary","name":"Shah Muhammad Road"}},{"type":"Feature","geometry":{"type":"LineString","coordinates":[[67.14884,24.84029],[67.14673,24.83987]]},"properties":{"class":"tertiary","name":"Shah Muhammad Road"}},{"type":"Feature","geometry":{"type":"LineString","coordinates":[[67.18088,24.81835],[67.1808,24.81883]]},"properties":{"class":"tertiary","name":"Street 18"}},{"type":"Feature","geometry":{"type":"LineString","coordinates":[[67.23574,24.8843],[67.23455,24.88139],[67.23312,24.87919],[67.22736,24.87412],[67.22248,24.86904],[67.22093,24.86832],[67.21932,24.86803],[67.21352,24.86831],[67.21037,24.86799],[67.1986,24.86466]]},"properties":{"class":"motorway","name":"Shahrah-e-Bhutto"}},{"type":"Feature","geometry":{"type":"LineString","coordinates":[[67.19852,24.86476],[67.21034,24.8681],[67.21329,24.86843],[67.21931,24.86816],[67.22167,24.86874],[67.22285,24.86947],[67.22725,24.8742],[67.233,24.87928],[67.23443,24.88144],[67.23562,24.88436]]},"properties":{"class":"motorway","name":"Shahrah-e-Bhutto"}},{"type":"Feature","geometry":{"type":"LineString","coordinates":[[67.1629,24.87224],[67.16294,24.87251]]},"properties":{"class":"tertiary","name":null}},{"type":"Feature","geometry":{"type":"LineString","coordinates":[[67.19318,24.84444],[67.19351,24.84423]]},"properties":{"class":"tertiary","name":null}},{"type":"Feature","geometry":{"type":"LineString","coordinates":[[67.22061,24.84345],[67.22579,24.84215]]},"properties":{"class":"primary","name":"Main Korangi Road"}},{"type":"Feature","geometry":{"type":"LineString","coordinates":[[67.18544,24.86385],[67.18553,24.86401]]},"properties":{"class":"secondary","name":"Korangi Link Road"}},{"type":"Feature","geometry":{"type":"LineString","coordinates":[[67.18553,24.86401],[67.18575,24.86431]]},"properties":{"class":"secondary","name":"Korangi Link Road"}},{"type":"Feature","geometry":{"type":"LineString","coordinates":[[67.18116,24.85115],[67.18129,24.85117]]},"properties":{"class":"primary","name":"Singer Chowrangi"}},{"type":"Feature","geometry":{"type":"LineString","coordinates":[[67.18129,24.85117],[67.18164,24.85101]]},"properties":{"class":"primary","name":"Singer Chowrangi"}},{"type":"Feature","geometry":{"type":"LineString","coordinates":[[67.18172,24.85071],[67.1816,24.85049]]},"properties":{"class":"primary","name":"Singer Chowrangi"}},{"type":"Feature","geometry":{"type":"LineString","coordinates":[[67.18164,24.85101],[67.18172,24.85071]]},"properties":{"class":"primary","name":"Singer Chowrangi"}},{"type":"Feature","geometry":{"type":"LineString","coordinates":[[67.18094,24.85053],[67.18085,24.85081]]},"properties":{"class":"primary","name":"Singer Chowrangi"}},{"type":"Feature","geometry":{"type":"LineString","coordinates":[[67.18125,24.85037],[67.18094,24.85053]]},"properties":{"class":"primary","name":"Singer Chowrangi"}},{"type":"Feature","geometry":{"type":"LineString","coordinates":[[67.1816,24.85049],[67.18125,24.85037]]},"properties":{"class":"primary","name":"Singer Chowrangi"}},{"type":"Feature","geometry":{"type":"LineString","coordinates":[[67.14549,24.82776],[67.14544,24.82802]]},"properties":{"class":"secondary","name":"Korangi No.2.5 Road"}},{"type":"Feature","geometry":{"type":"LineString","coordinates":[[67.14692,24.82176],[67.14678,24.82235]]},"properties":{"class":"secondary","name":"Korangi No.2.5 Road"}},{"type":"Feature","geometry":{"type":"LineString","coordinates":[[67.14302,24.8393],[67.14305,24.83915]]},"properties":{"class":"secondary","name":"Korangi No.2.5 Road"}},{"type":"Feature","geometry":{"type":"LineString","coordinates":[[67.14229,24.84261],[67.14302,24.8393]]},"properties":{"class":"secondary","name":"Korangi No.2.5 Road"}},{"type":"Feature","geometry":{"type":"LineString","coordinates":[[67.14202,24.87795],[67.14804,24.8791]]},"properties":{"class":"secondary","name":"Azeempura Flyover"}},{"type":"Feature","geometry":{"type":"LineString","coordinates":[[67.14805,24.87902],[67.14203,24.87786]]},"properties":{"class":"secondary","name":"Azeempura Flyover"}},{"type":"Feature","geometry":{"type":"LineString","coordinates":[[67.14179,24.87791],[67.14202,24.87795]]},"properties":{"class":"secondary","name":"Azeempura Flyover"}},{"type":"Feature","geometry":{"type":"LineString","coordinates":[[67.14203,24.87786],[67.1418,24.87782]]},"properties":{"class":"secondary","name":"Azeempura Flyover"}}]}
